"{\n    \"CCSDS_OMM_VERS\": \"2.0\",\n    \"COMMENT\": \"GENERATED VIA SPACE-TRACK.ORG API\",\n    \"CREATION_DATE\": \"2025-08-31T17:37:22\",\n    \"ORIGINATOR\": \"18 SPCS\",\n    \"OBJECT_NAME\": \"BEIDOU 6\",\n    \"OBJECT_ID\": \"2010-057A\",\n    \"CENTER_NAME\": \"EARTH\",\n    \"REF_FRAME\": \"TEME\",\n    \"TIME_SYSTEM\": \"UTC\",\n    \"MEAN_ELEMENT_THEORY\": \"SGP4\",\n    \"EPOCH\": \"2025-08-31T11:39:44.493696\",\n    \"MEAN_MOTION\": \"1.0027262645\",\n    \"ECCENTRICITY\": \"0.00071706046\",\n    \"INCLINATION\": \"2.9219204\",\n    \"RA_OF_ASC_NODE\": \"70.273938\",\n    \"ARG_OF_PERICENTER\": \"166.9864\",\n    \"MEAN_ANOMALY\": \"77.655476\",\n    \"EPHEMERIS_TYPE\": \"0\",\n    \"CLASSIFICATION_TYPE\": \"U\",\n    \"NORAD_CAT_ID\": \"37210\",\n    \"ELEMENT_SET_NO\": \"999\",\n    \"REV_AT_EPOCH\": \"5438\",\n    \"BSTAR\": \"0\",\n    \"MEAN_MOTION_DOT\": \"-0.000001083381\",\n    \"MEAN_MOTION_DDOT\": \"0\",\n    \"TLE_LINE0\": \"0 BEIDOU 6\",\n    \"TLE_LINE1\": \"1 37210U 10057A   25243.48593164 -.00000108  00000-0  00000-0 0  9992\",\n    \"TLE_LINE2\": \"2 37210   2.9219  70.2739 0007171 166.9864  77.6555  1.00272626 54383\",\n    \"SEMIMAJOR_AXIS\": \"42164.496\",\n    \"PERIOD\": \"1436.085\",\n    \"APOAPSIS\": \"35816.596\",\n    \"PERIAPSIS\": \"35756.127\",\n    \"OBJECT_TYPE\": \"PAYLOAD\",\n    \"DECAYED\": \"0\"\n}"